[{"OBJECT_NAME":"STARLINK-34615","OBJECT_ID":"2025-253C","EPOCH":"2026-03-09T10:03:19.471968","MEAN_MOTION":15.27600643,"ECCENTRICITY":0.00015165,"INCLINATION":42.9927,"RA_OF_ASC_NODE":213.96,"ARG_OF_PERICENTER":149.7735,"MEAN_ANOMALY":210.3204,"EPHEMERIS_TYPE":0,"CLASSIFICATION_TYPE":"U","NORAD_CAT_ID":66321,"ELEMENT_SET_NO":999,"REV_AT_EPOCH":2020,"BSTAR":0.0010533718,"MEAN_MOTION_DOT":0.00028856,"MEAN_MOTION_DDOT":0},{"OBJECT_NAME":"KUIPER-00226","OBJECT_ID":"2026-030X","EPOCH":"2026-03-09T15:01:51.726432","MEAN_MOTION":15.30655594,"ECCENTRICITY":0.0017713,"INCLINATION":51.8814,"RA_OF_ASC_NODE":220.1252,"ARG_OF_PERICENTER":64.2781,"MEAN_ANOMALY":296.003,"EPHEMERIS_TYPE":0,"CLASSIFICATION_TYPE":"U","NORAD_CAT_ID":67785,"ELEMENT_SET_NO":999,"REV_AT_EPOCH":507,"BSTAR":0.001553,"MEAN_MOTION_DOT":0.00046834,"MEAN_MOTION_DDOT":0}]
